KUIPER-00140            
1 65965U 25228U   26187.19264225 -.00000228  00000+0 -90133-6 0  9990
2 65965  51.8975 181.6438 0000584  69.0522 291.0502 14.79927363 40981
KUIPER-00141            
1 65966U 25228V   26187.26556611  .00002329  00000+0  33444-3 0  9993
2 65966  51.9011 176.3741 0000599  66.7817 293.3208 14.79934974 41063
KUIPER-00146            
1 65967U 25228W   26187.36418453  .00002380  00000+0  34104-3 0  9997
2 65967  51.9009 178.4484 0000528  58.5986 301.5028 14.79937269 41046
KUIPER-00149            
1 65968U 25228X   26187.40328494  .00010303  00000+0  13770-2 0  9997
2 65968  51.8989 173.1617 0000716  49.7527 310.3498 14.79975123 41124
KUIPER-00154            
1 65969U 25228Y   26187.16966534 -.00000050  00000+0  22394-4 0  9997
2 65969  51.8984 171.6869 0000568  71.7399 288.3625 14.79927221 41121
KUIPER-00157            
1 65970U 25228Z   26187.43607804  .00146586  00000+0  18410-1 0  9996
2 65970  51.9022 173.1337 0000520  13.9731 346.1246 14.80905679 41127
KUIPER-00144            
1 67133U 25301A   26187.69115282 -.00000634  00000+0 -54153-4 0  9995
2 67133  51.9005 249.3953 0000579  98.5345 261.5683 14.79923750 31497
KUIPER-00164            
1 67134U 25301B   26187.44580454  .00001277  00000+0  21160-3 0  9999
2 67134  51.9026 262.6830 0000824 312.6117  47.4774 14.76623115 31461
KUIPER-00175            
1 67135U 25301C   26186.86377156 -.00158478  00000+0 -18381-1 0  9995
2 67135  51.8985 248.1217 0000838  39.5066 320.5960 14.85935734 31517
KUIPER-00179            
1 67136U 25301D   26187.41023243  .00000441  00000+0  86897-4 0  9997
2 67136  51.8972 260.6085 0000659 101.3936 258.7101 14.79932916 31499
KUIPER-00181            
1 67137U 25301E   26187.53171617  .00022884  00000+0  30074-2 0  9999
2 67137  51.9019 272.6059 0000720  84.6908 275.4136 14.80116760 31316
KUIPER-00183            
1 67138U 25301F   26187.41701748  .00002378  00000+0  25122-3 0  9996
2 67138  51.8931 246.1779 0009740  97.5890 262.6185 14.92812093 31685
KUIPER-00184            
1 67139U 25301G   26187.38184200 -.00000007  00000+0  28099-4 0  9996
2 67139  51.8991 255.7338 0000451 160.8901 199.2078 14.79943586 31656
KUIPER-00186            
1 67140U 25301H   26187.43052493 -.00003372  00000+0 -41360-3 0  9996
2 67140  51.9019 273.0659 0000517  90.7688 269.3334 14.79924138 31145
KUIPER-00187            
1 67141U 25301J   26187.49535278  .00003355  00000+0  46872-3 0  9992
2 67141  51.9025 275.3007 0000565 103.5030 256.5995 14.79945364 31114
KUIPER-00188            
1 67142U 25301K   26187.36159514 -.00000711  00000+0 -64229-4 0  9996
2 67142  51.9009 243.4797 0000528  92.6120 267.4902 14.79929196 31547
