{"fetched_at":"2026-07-07T07:58:09.009Z","source":"https://celestrak.org/NORAD/elements/gp.php?GROUP=kuiper&FORMAT=JSON","constellation":"kuiper","records":[{"OBJECT_NAME":"KUIPER-00140","OBJECT_ID":"2025-228U","EPOCH":"2026-07-06T04:37:24.290400","CLASSIFICATION_TYPE":"U","MEAN_MOTION":14.79927363,"ECCENTRICITY":0.00005847,"INCLINATION":51.8975,"RA_OF_ASC_NODE":181.6438,"ARG_OF_PERICENTER":69.0522,"MEAN_ANOMALY":291.0502,"EPHEMERIS_TYPE":0,"NORAD_CAT_ID":65965,"ELEMENT_SET_NO":999,"REV_AT_EPOCH":4098,"BSTAR":-9.01327e-7,"MEAN_MOTION_DOT":-0.00000228,"MEAN_MOTION_DDOT":0},{"OBJECT_NAME":"KUIPER-00141","OBJECT_ID":"2025-228V","EPOCH":"2026-07-06T06:22:24.911904","CLASSIFICATION_TYPE":"U","MEAN_MOTION":14.79934974,"ECCENTRICITY":0.00005998,"INCLINATION":51.9011,"RA_OF_ASC_NODE":176.3741,"ARG_OF_PERICENTER":66.7817,"MEAN_ANOMALY":293.3208,"EPHEMERIS_TYPE":0,"NORAD_CAT_ID":65966,"ELEMENT_SET_NO":999,"REV_AT_EPOCH":4106,"BSTAR":0.00033444471,"MEAN_MOTION_DOT":0.00002329,"MEAN_MOTION_DDOT":0},{"OBJECT_NAME":"KUIPER-00146","OBJECT_ID":"2025-228W","EPOCH":"2026-07-06T08:44:25.543392","CLASSIFICATION_TYPE":"U","MEAN_MOTION":14.79937269,"ECCENTRICITY":0.0000528,"INCLINATION":51.9009,"RA_OF_ASC_NODE":178.4484,"ARG_OF_PERICENTER":58.5986,"MEAN_ANOMALY":301.5028,"EPHEMERIS_TYPE":0,"NORAD_CAT_ID":65967,"ELEMENT_SET_NO":999,"REV_AT_EPOCH":4104,"BSTAR":0.00034103548,"MEAN_MOTION_DOT":0.0000238,"MEAN_MOTION_DDOT":0},{"OBJECT_NAME":"KUIPER-00149","OBJECT_ID":"2025-228X","EPOCH":"2026-07-06T09:40:43.818816","CLASSIFICATION_TYPE":"U","MEAN_MOTION":14.79975123,"ECCENTRICITY":0.00007169,"INCLINATION":51.8989,"RA_OF_ASC_NODE":173.1617,"ARG_OF_PERICENTER":49.7527,"MEAN_ANOMALY":310.3498,"EPHEMERIS_TYPE":0,"NORAD_CAT_ID":65968,"ELEMENT_SET_NO":999,"REV_AT_EPOCH":4112,"BSTAR":0.0013770071,"MEAN_MOTION_DOT":0.00010303,"MEAN_MOTION_DDOT":0},{"OBJECT_NAME":"KUIPER-00154","OBJECT_ID":"2025-228Y","EPOCH":"2026-07-06T04:04:19.085376","CLASSIFICATION_TYPE":"U","MEAN_MOTION":14.79927221,"ECCENTRICITY":0.00005682,"INCLINATION":51.8984,"RA_OF_ASC_NODE":171.6869,"ARG_OF_PERICENTER":71.7399,"MEAN_ANOMALY":288.3625,"EPHEMERIS_TYPE":0,"NORAD_CAT_ID":65969,"ELEMENT_SET_NO":999,"REV_AT_EPOCH":4112,"BSTAR":0.000022394376,"MEAN_MOTION_DOT":-5e-7,"MEAN_MOTION_DDOT":0},{"OBJECT_NAME":"KUIPER-00157","OBJECT_ID":"2025-228Z","EPOCH":"2026-07-06T10:27:57.142656","CLASSIFICATION_TYPE":"U","MEAN_MOTION":14.80905679,"ECCENTRICITY":0.000052,"INCLINATION":51.9022,"RA_OF_ASC_NODE":173.1337,"ARG_OF_PERICENTER":13.9731,"MEAN_ANOMALY":346.1246,"EPHEMERIS_TYPE":0,"NORAD_CAT_ID":65970,"ELEMENT_SET_NO":999,"REV_AT_EPOCH":4112,"BSTAR":0.01841,"MEAN_MOTION_DOT":0.00146586,"MEAN_MOTION_DDOT":0},{"OBJECT_NAME":"KUIPER-00144","OBJECT_ID":"2025-301A","EPOCH":"2026-07-06T16:35:15.603648","CLASSIFICATION_TYPE":"U","MEAN_MOTION":14.7992375,"ECCENTRICITY":0.0000579,"INCLINATION":51.9005,"RA_OF_ASC_NODE":249.3953,"ARG_OF_PERICENTER":98.5345,"MEAN_ANOMALY":261.5683,"EPHEMERIS_TYPE":0,"NORAD_CAT_ID":67133,"ELEMENT_SET_NO":999,"REV_AT_EPOCH":3149,"BSTAR":-0.000054153,"MEAN_MOTION_DOT":-0.00000634,"MEAN_MOTION_DDOT":0},{"OBJECT_NAME":"KUIPER-00164","OBJECT_ID":"2025-301B","EPOCH":"2026-07-06T10:41:57.512256","CLASSIFICATION_TYPE":"U","MEAN_MOTION":14.76623115,"ECCENTRICITY":0.0000824,"INCLINATION":51.9026,"RA_OF_ASC_NODE":262.683,"ARG_OF_PERICENTER":312.6117,"MEAN_ANOMALY":47.4774,"EPHEMERIS_TYPE":0,"NORAD_CAT_ID":67134,"ELEMENT_SET_NO":999,"REV_AT_EPOCH":3146,"BSTAR":0.0002116,"MEAN_MOTION_DOT":0.00001277,"MEAN_MOTION_DDOT":0},{"OBJECT_NAME":"KUIPER-00175","OBJECT_ID":"2025-301C","EPOCH":"2026-07-05T20:43:49.862784","CLASSIFICATION_TYPE":"U","MEAN_MOTION":14.85935734,"ECCENTRICITY":0.0000838,"INCLINATION":51.8985,"RA_OF_ASC_NODE":248.1217,"ARG_OF_PERICENTER":39.5066,"MEAN_ANOMALY":320.596,"EPHEMERIS_TYPE":0,"NORAD_CAT_ID":67135,"ELEMENT_SET_NO":999,"REV_AT_EPOCH":3151,"BSTAR":-0.018381,"MEAN_MOTION_DOT":-0.00158478,"MEAN_MOTION_DDOT":0},{"OBJECT_NAME":"KUIPER-00179","OBJECT_ID":"2025-301D","EPOCH":"2026-07-06T09:50:44.081952","CLASSIFICATION_TYPE":"U","MEAN_MOTION":14.79932916,"ECCENTRICITY":0.0000659,"INCLINATION":51.8972,"RA_OF_ASC_NODE":260.6085,"ARG_OF_PERICENTER":101.3936,"MEAN_ANOMALY":258.7101,"EPHEMERIS_TYPE":0,"NORAD_CAT_ID":67136,"ELEMENT_SET_NO":999,"REV_AT_EPOCH":3149,"BSTAR":0.000086897,"MEAN_MOTION_DOT":0.00000441,"MEAN_MOTION_DDOT":0},{"OBJECT_NAME":"KUIPER-00181","OBJECT_ID":"2025-301E","EPOCH":"2026-07-06T12:45:40.277088","CLASSIFICATION_TYPE":"U","MEAN_MOTION":14.8011676,"ECCENTRICITY":0.000072,"INCLINATION":51.9019,"RA_OF_ASC_NODE":272.6059,"ARG_OF_PERICENTER":84.6908,"MEAN_ANOMALY":275.4136,"EPHEMERIS_TYPE":0,"NORAD_CAT_ID":67137,"ELEMENT_SET_NO":999,"REV_AT_EPOCH":3131,"BSTAR":0.0030074,"MEAN_MOTION_DOT":0.00022884,"MEAN_MOTION_DDOT":0},{"OBJECT_NAME":"KUIPER-00183","OBJECT_ID":"2025-301F","EPOCH":"2026-07-06T10:00:30.310272","CLASSIFICATION_TYPE":"U","MEAN_MOTION":14.92812093,"ECCENTRICITY":0.000974,"INCLINATION":51.8931,"RA_OF_ASC_NODE":246.1779,"ARG_OF_PERICENTER":97.589,"MEAN_ANOMALY":262.6185,"EPHEMERIS_TYPE":0,"NORAD_CAT_ID":67138,"ELEMENT_SET_NO":999,"REV_AT_EPOCH":3168,"BSTAR":0.00025122,"MEAN_MOTION_DOT":0.00002378,"MEAN_MOTION_DDOT":0},{"OBJECT_NAME":"KUIPER-00184","OBJECT_ID":"2025-301G","EPOCH":"2026-07-06T09:09:51.148800","CLASSIFICATION_TYPE":"U","MEAN_MOTION":14.79943586,"ECCENTRICITY":0.00004516,"INCLINATION":51.8991,"RA_OF_ASC_NODE":255.7338,"ARG_OF_PERICENTER":160.8901,"MEAN_ANOMALY":199.2078,"EPHEMERIS_TYPE":0,"NORAD_CAT_ID":67139,"ELEMENT_SET_NO":999,"REV_AT_EPOCH":3165,"BSTAR":0.000028099065,"MEAN_MOTION_DOT":-7e-8,"MEAN_MOTION_DDOT":0},{"OBJECT_NAME":"KUIPER-00186","OBJECT_ID":"2025-301H","EPOCH":"2026-07-06T10:19:57.353952","CLASSIFICATION_TYPE":"U","MEAN_MOTION":14.79924138,"ECCENTRICITY":0.0000517,"INCLINATION":51.9019,"RA_OF_ASC_NODE":273.0659,"ARG_OF_PERICENTER":90.7688,"MEAN_ANOMALY":269.3334,"EPHEMERIS_TYPE":0,"NORAD_CAT_ID":67140,"ELEMENT_SET_NO":999,"REV_AT_EPOCH":3114,"BSTAR":-0.0004136,"MEAN_MOTION_DOT":-0.00003372,"MEAN_MOTION_DDOT":0},{"OBJECT_NAME":"KUIPER-00187","OBJECT_ID":"2025-301J","EPOCH":"2026-07-06T11:53:18.480192","CLASSIFICATION_TYPE":"U","MEAN_MOTION":14.79945364,"ECCENTRICITY":0.0000565,"INCLINATION":51.9025,"RA_OF_ASC_NODE":275.3007,"ARG_OF_PERICENTER":103.503,"MEAN_ANOMALY":256.5995,"EPHEMERIS_TYPE":0,"NORAD_CAT_ID":67141,"ELEMENT_SET_NO":999,"REV_AT_EPOCH":3111,"BSTAR":0.00046872,"MEAN_MOTION_DOT":0.00003355,"MEAN_MOTION_DDOT":0},{"OBJECT_NAME":"KUIPER-00188","OBJECT_ID":"2025-301K","EPOCH":"2026-07-06T08:40:41.820096","CLASSIFICATION_TYPE":"U","MEAN_MOTION":14.79929196,"ECCENTRICITY":0.00005283,"INCLINATION":51.9009,"RA_OF_ASC_NODE":243.4797,"ARG_OF_PERICENTER":92.612,"MEAN_ANOMALY":267.4902,"EPHEMERIS_TYPE":0,"NORAD_CAT_ID":67142,"ELEMENT_SET_NO":999,"REV_AT_EPOCH":3154,"BSTAR":-0.000064228569,"MEAN_MOTION_DOT":-0.00000711,"MEAN_MOTION_DDOT":0}]}
